[{"OBJECT_NAME":"JILIN-1 GAOFEN 3I","OBJECT_ID":"2020-065H","EPOCH":"2026-03-09T21:52:33.609504","MEAN_MOTION":15.70055987,"ECCENTRICITY":0.00105914,"INCLINATION":97.2419,"RA_OF_ASC_NODE":125.8258,"ARG_OF_PERICENTER":92.4806,"MEAN_ANOMALY":267.767,"EPHEMERIS_TYPE":0,"CLASSIFICATION_TYPE":"U","NORAD_CAT_ID":46461,"ELEMENT_SET_NO":999,"REV_AT_EPOCH":30463,"BSTAR":0.00089589772,"MEAN_MOTION_DOT":0.00109158,"MEAN_MOTION_DDOT":0},{"OBJECT_NAME":"STARLINK-11194 [DTC]","OBJECT_ID":"2024-124E","EPOCH":"2026-03-09T12:47:20.154624","MEAN_MOTION":15.69732018,"ECCENTRICITY":0.00010788,"INCLINATION":53.1567,"RA_OF_ASC_NODE":161.7222,"ARG_OF_PERICENTER":148.5522,"MEAN_ANOMALY":211.5561,"EPHEMERIS_TYPE":0,"CLASSIFICATION_TYPE":"U","NORAD_CAT_ID":60187,"ELEMENT_SET_NO":999,"REV_AT_EPOCH":9651,"BSTAR":0.00015620389,"MEAN_MOTION_DOT":0.00018394,"MEAN_MOTION_DDOT":0}]
